CCSDS_OMM_VERS = 2.0
CREATION_DATE  = 
ORIGINATOR     = 

OBJECT_NAME    = ATLAS CENTAUR R/B
OBJECT_ID      = 1972-065B
CENTER_NAME    = EARTH
REF_FRAME      = TEME
TIME_SYSTEM    = UTC
MEAN_ELEMENT_THEORY = SGP/SGP4

EPOCH          = 2026-03-01T05:56:27.383424
MEAN_MOTION    = 14.77659101
ECCENTRICITY   = .0034362
INCLINATION    = 35.0029
RA_OF_ASC_NODE = 355.2261
ARG_OF_PERICENTER = 298.4287
MEAN_ANOMALY   = 61.2953

EPHEMERIS_TYPE = 0
CLASSIFICATION_TYPE = U
NORAD_CAT_ID   = 6155
ELEMENT_SET_NO = 999
REV_AT_EPOCH   = 84001
BSTAR          = .22812E-3
MEAN_MOTION_DOT = .1653E-4
MEAN_MOTION_DDOT = 0

CCSDS_OMM_VERS = 2.0
CREATION_DATE  = 
ORIGINATOR     = 

OBJECT_NAME    = SL-8 R/B
OBJECT_ID      = 1975-112B
CENTER_NAME    = EARTH
REF_FRAME      = TEME
TIME_SYSTEM    = UTC
MEAN_ELEMENT_THEORY = SGP/SGP4

EPOCH          = 2026-03-01T08:45:03.902400
MEAN_MOTION    = 14.38197904
ECCENTRICITY   = .0014629
INCLINATION    = 74.0610
RA_OF_ASC_NODE = 34.2256
ARG_OF_PERICENTER = 130.8312
MEAN_ANOMALY   = 229.4113

EPHEMERIS_TYPE = 0
CLASSIFICATION_TYPE = U
NORAD_CAT_ID   = 8459
ELEMENT_SET_NO = 999
REV_AT_EPOCH   = 63067
BSTAR          = .92006E-4
MEAN_MOTION_DOT = .254E-5
MEAN_MOTION_DDOT = 0

CCSDS_OMM_VERS = 2.0
CREATION_DATE  = 
ORIGINATOR     = 

OBJECT_NAME    = SL-3 R/B
OBJECT_ID      = 1977-057B
CENTER_NAME    = EARTH
REF_FRAME      = TEME
TIME_SYSTEM    = UTC
MEAN_ELEMENT_THEORY = SGP/SGP4

EPOCH          = 2026-03-01T10:20:13.831296
MEAN_MOTION    = 15.45217717
ECCENTRICITY   = .0006497
INCLINATION    = 97.5754
RA_OF_ASC_NODE = 231.9903
ARG_OF_PERICENTER = 319.3903
MEAN_ANOMALY   = 40.6860

EPHEMERIS_TYPE = 0
CLASSIFICATION_TYPE = U
NORAD_CAT_ID   = 10114
ELEMENT_SET_NO = 999
REV_AT_EPOCH   = 66705
BSTAR          = .33213E-3
MEAN_MOTION_DOT = .15704E-3
MEAN_MOTION_DDOT = 0

CCSDS_OMM_VERS = 2.0
CREATION_DATE  = 
ORIGINATOR     = 

OBJECT_NAME    = SEASAT 1
OBJECT_ID      = 1978-064A
CENTER_NAME    = EARTH
REF_FRAME      = TEME
TIME_SYSTEM    = UTC
MEAN_ELEMENT_THEORY = SGP/SGP4

EPOCH          = 2026-03-01T01:22:11.994528
MEAN_MOTION    = 14.46152457
ECCENTRICITY   = .00020922
INCLINATION    = 108.0132
RA_OF_ASC_NODE = 107.3848
ARG_OF_PERICENTER = 289.1649
MEAN_ANOMALY   = 70.9270

EPHEMERIS_TYPE = 0
CLASSIFICATION_TYPE = U
NORAD_CAT_ID   = 10967
ELEMENT_SET_NO = 999
REV_AT_EPOCH   = 50526
BSTAR          = .1094442E-3
MEAN_MOTION_DOT = .254E-5
MEAN_MOTION_DDOT = 0

CCSDS_OMM_VERS = 2.0
CREATION_DATE  = 
ORIGINATOR     = 

OBJECT_NAME    = SL-14 R/B
OBJECT_ID      = 1979-011B
CENTER_NAME    = EARTH
REF_FRAME      = TEME
TIME_SYSTEM    = UTC
MEAN_ELEMENT_THEORY = SGP/SGP4

EPOCH          = 2026-03-01T04:43:15.831264
MEAN_MOTION    = 14.91896596
ECCENTRICITY   = .0017649
INCLINATION    = 82.5219
RA_OF_ASC_NODE = 104.6316
ARG_OF_PERICENTER = 86.5160
MEAN_ANOMALY   = 273.8077

EPHEMERIS_TYPE = 0
CLASSIFICATION_TYPE = U
NORAD_CAT_ID   = 11267
ELEMENT_SET_NO = 999
REV_AT_EPOCH   = 52751
BSTAR          = .58678E-4
MEAN_MOTION_DOT = .62E-5
MEAN_MOTION_DDOT = 0

CCSDS_OMM_VERS = 2.0
CREATION_DATE  = 
ORIGINATOR     = 

OBJECT_NAME    = SL-8 R/B
OBJECT_ID      = 1979-089B
CENTER_NAME    = EARTH
REF_FRAME      = TEME
TIME_SYSTEM    = UTC
MEAN_ELEMENT_THEORY = SGP/SGP4

EPOCH          = 2026-03-01T11:48:04.876704
MEAN_MOTION    = 14.42344309
ECCENTRICITY   = .0017095
INCLINATION    = 74.0674
RA_OF_ASC_NODE = 106.2205
ARG_OF_PERICENTER = 279.7225
MEAN_ANOMALY   = 80.2001

EPHEMERIS_TYPE = 0
CLASSIFICATION_TYPE = U
NORAD_CAT_ID   = 11574
ELEMENT_SET_NO = 999
REV_AT_EPOCH   = 43492
BSTAR          = .85315E-4
MEAN_MOTION_DOT = .256E-5
MEAN_MOTION_DDOT = 0

CCSDS_OMM_VERS = 2.0
CREATION_DATE  = 
ORIGINATOR     = 

OBJECT_NAME    = SL-14 R/B
OBJECT_ID      = 1980-005B
CENTER_NAME    = EARTH
REF_FRAME      = TEME
TIME_SYSTEM    = UTC
MEAN_ELEMENT_THEORY = SGP/SGP4

EPOCH          = 2026-03-01T04:53:58.350912
MEAN_MOTION    = 14.90918596
ECCENTRICITY   = .0015423
INCLINATION    = 82.5160
RA_OF_ASC_NODE = 315.2845
ARG_OF_PERICENTER = 186.1888
MEAN_ANOMALY   = 173.9143

EPHEMERIS_TYPE = 0
CLASSIFICATION_TYPE = U
NORAD_CAT_ID   = 11672
ELEMENT_SET_NO = 999
REV_AT_EPOCH   = 47522
BSTAR          = .67762E-4
MEAN_MOTION_DOT = .695E-5
MEAN_MOTION_DDOT = 0

CCSDS_OMM_VERS = 2.0
CREATION_DATE  = 
ORIGINATOR     = 

OBJECT_NAME    = SL-8 R/B
OBJECT_ID      = 1981-003B
CENTER_NAME    = EARTH
REF_FRAME      = TEME
TIME_SYSTEM    = UTC
MEAN_ELEMENT_THEORY = SGP/SGP4

EPOCH          = 2026-03-01T03:00:18.845568
MEAN_MOTION    = 15.10593153
ECCENTRICITY   = .02627862
INCLINATION    = 82.9401
RA_OF_ASC_NODE = 297.9419
ARG_OF_PERICENTER = 208.3837
MEAN_ANOMALY   = 150.2873

EPHEMERIS_TYPE = 0
CLASSIFICATION_TYPE = U
NORAD_CAT_ID   = 12139
ELEMENT_SET_NO = 999
REV_AT_EPOCH   = 31338
BSTAR          = .45639678E-3
MEAN_MOTION_DOT = .17612E-3
MEAN_MOTION_DDOT = 0

CCSDS_OMM_VERS = 2.0
CREATION_DATE  = 
ORIGINATOR     = 

OBJECT_NAME    = SL-3 R/B
OBJECT_ID      = 1981-046B
CENTER_NAME    = EARTH
REF_FRAME      = TEME
TIME_SYSTEM    = UTC
MEAN_ELEMENT_THEORY = SGP/SGP4

EPOCH          = 2026-03-01T11:27:49.415328
MEAN_MOTION    = 15.41741874
ECCENTRICITY   = .0020212
INCLINATION    = 81.2319
RA_OF_ASC_NODE = 299.6037
ARG_OF_PERICENTER = 50.0406
MEAN_ANOMALY   = 310.2607

EPHEMERIS_TYPE = 0
CLASSIFICATION_TYPE = U
NORAD_CAT_ID   = 12465
ELEMENT_SET_NO = 999
REV_AT_EPOCH   = 43716
BSTAR          = .32705E-3
MEAN_MOTION_DOT = .13958E-3
MEAN_MOTION_DDOT = 0

CCSDS_OMM_VERS = 2.0
CREATION_DATE  = 
ORIGINATOR     = 

OBJECT_NAME    = SL-3 R/B
OBJECT_ID      = 1981-103B
CENTER_NAME    = EARTH
REF_FRAME      = TEME
TIME_SYSTEM    = UTC
MEAN_ELEMENT_THEORY = SGP/SGP4

EPOCH          = 2026-03-01T11:38:15.297792
MEAN_MOTION    = 15.21254672
ECCENTRICITY   = .0012663
INCLINATION    = 81.1565
RA_OF_ASC_NODE = 223.0568
ARG_OF_PERICENTER = 316.1879
MEAN_ANOMALY   = 43.8346

EPHEMERIS_TYPE = 0
CLASSIFICATION_TYPE = U
NORAD_CAT_ID   = 12904
ELEMENT_SET_NO = 999
REV_AT_EPOCH   = 97198
BSTAR          = .28048E-3
MEAN_MOTION_DOT = .6302E-4
MEAN_MOTION_DDOT = 0

CCSDS_OMM_VERS = 2.0
CREATION_DATE  = 
ORIGINATOR     = 

OBJECT_NAME    = SL-3 R/B
OBJECT_ID      = 1982-013B
CENTER_NAME    = EARTH
REF_FRAME      = TEME
TIME_SYSTEM    = UTC
MEAN_ELEMENT_THEORY = SGP/SGP4

EPOCH          = 2026-03-01T10:20:11.992704
MEAN_MOTION    = 15.21913906
ECCENTRICITY   = .0022257
INCLINATION    = 81.1768
RA_OF_ASC_NODE = 170.4476
ARG_OF_PERICENTER = 205.5102
MEAN_ANOMALY   = 154.5033

EPHEMERIS_TYPE = 0
CLASSIFICATION_TYPE = U
NORAD_CAT_ID   = 13068
ELEMENT_SET_NO = 999
REV_AT_EPOCH   = 40309
BSTAR          = .25984E-3
MEAN_MOTION_DOT = .5982E-4
MEAN_MOTION_DDOT = 0

CCSDS_OMM_VERS = 2.0
CREATION_DATE  = 
ORIGINATOR     = 

OBJECT_NAME    = SL-3 R/B
OBJECT_ID      = 1982-039B
CENTER_NAME    = EARTH
REF_FRAME      = TEME
TIME_SYSTEM    = UTC
MEAN_ELEMENT_THEORY = SGP/SGP4

EPOCH          = 2026-03-01T12:09:18.088704
MEAN_MOTION    = 15.10023405
ECCENTRICITY   = .0029895
INCLINATION    = 81.1580
RA_OF_ASC_NODE = 225.3961
ARG_OF_PERICENTER = 351.1548
MEAN_ANOMALY   = 8.9146

EPHEMERIS_TYPE = 0
CLASSIFICATION_TYPE = U
NORAD_CAT_ID   = 13154
ELEMENT_SET_NO = 999
REV_AT_EPOCH   = 38040
BSTAR          = .19094E-3
MEAN_MOTION_DOT = .3159E-4
MEAN_MOTION_DDOT = 0

