ATLAS CENTAUR R/B       
1 06155U 72065B   26060.24753916  .00001653  00000+0  22812-3 0  9990
2 06155  35.0029 355.2261 0034362 298.4287  61.2953 14.77659101840010
SL-8 R/B                
1 08459U 75112B   26060.36462850  .00000254  00000+0  92006-4 0  9991
2 08459  74.0610  34.2256 0014629 130.8312 229.4113 14.38197904630678
SL-3 R/B                
1 10114U 77057B   26060.43071564  .00015704  00000+0  33213-3 0  9998
2 10114  97.5754 231.9903 0006497 319.3903  40.6860 15.45217717667055
SEASAT 1                
1 10967U 78064A   26060.05708327  .00000254  00000+0  10944-3 0  9995
2 10967 108.0132 107.3848 0002092 289.1649  70.9270 14.46152457505265
SL-14 R/B               
1 11267U 79011B   26060.19671101  .00000620  00000+0  58678-4 0  9990
2 11267  82.5219 104.6316 0017649  86.5160 273.8077 14.91896596527512
SL-8 R/B                
1 11574U 79089B   26060.49172311  .00000256  00000+0  85315-4 0  9991
2 11574  74.0674 106.2205 0017095 279.7225  80.2001 14.42344309434927
SL-14 R/B               
1 11672U 80005B   26060.20414758  .00000695  00000+0  67762-4 0  9996
2 11672  82.5160 315.2845 0015423 186.1888 173.9143 14.90918596475224
SL-8 R/B                
1 12139U 81003B   26060.12521812  .00017612  00000+0  45640-3 0  9992
2 12139  82.9401 297.9419 0262786 208.3837 150.2873 15.10593153313382
SL-3 R/B                
1 12465U 81046B   26060.47765527  .00013958  00000+0  32705-3 0  9999
2 12465  81.2319 299.6037 0020212  50.0406 310.2607 15.41741874437164
SL-3 R/B                
1 12904U 81103B   26060.48489928  .00006302  00000+0  28048-3 0  9990
2 12904  81.1565 223.0568 0012663 316.1879  43.8346 15.21254672971980
SL-3 R/B                
1 13068U 82013B   26060.43069436  .00005982  00000+0  25984-3 0  9995
2 13068  81.1768 170.4476 0022257 205.5102 154.5033 15.21913906403097
SL-3 R/B                
1 13154U 82039B   26060.50645936  .00003159  00000+0  19094-3 0  9991
2 13154  81.1580 225.3961 0029895 351.1548   8.9146 15.10023405380401
